COSMOS 2572             
1 58435U 23182A   26200.72125631  .00046870  26532-5  15717-3 0  9990
2 58435  96.6815 304.2716 0014044 168.8202 191.3388 15.90133973153626
STARLINK-30869          
1 58437U 23183A   26200.83759504  .00003703  00000+0  14403-3 0  9992
2 58437  43.0002  15.4014 0001533 262.2302  97.8376 15.27574922146940
STARLINK-30969          
1 58438U 23183B   26200.89912783  .00001147  00000+0  51202-4 0  9998
2 58438  43.0045  15.0075 0002122 277.0469  83.0141 15.27576639146959
STARLINK-30951          
1 58439U 23183C   26201.16838937 -.00000323  00000+0 -22326-5 0  9991
2 58439  43.0010  13.5908 0000906 274.5446  85.5303 15.27570883146991
STARLINK-30950          
1 58440U 23183D   26201.29666415 -.00000994  00000+0 -26608-4 0  9997
2 58440  42.9997 176.2306 0000986 284.0010  76.0731 15.27583177149314
STARLINK-30942          
1 58441U 23183E   26200.86444700  .00001862  00000+0  77188-4 0  9993
2 58441  43.0043  14.7528 0001197 221.0139 139.0623 15.27568908146951
STARLINK-30959          
1 58442U 23183F   26200.87471832 -.00000367  00000+0 -38300-5 0  9996
2 58442  43.0047  14.8277 0001197 260.6269  99.4447 15.27575040146959
STARLINK-30971          
1 58443U 23183G   26201.18637203 -.00000204  00000+0  20972-5 0  9993
2 58443  43.0033  13.7152 0001101 273.0841  86.9884 15.27574199146998
STARLINK-30963          
1 58444U 23183H   26201.20550607  .00006935  00000+0  26163-3 0  9991
2 58444  43.0066  13.0001 0002060 238.7499 121.3151 15.27538204147004
STARLINK-30961          
1 58445U 23183J   26201.20936041  .00000285  00000+0  19882-4 0  9995
2 58445  43.0040  13.0309 0001361 270.2754  89.7942 15.27590787147005
STARLINK-30975          
1 58446U 23183K   26200.75036880  .00000245  00000+0  18439-4 0  9990
2 58446  43.0048  15.5986 0001515 262.3219  97.7461 15.27572289146956
STARLINK-30976          
1 58447U 23183L   26200.89399300 -.00000903  00000+0 -23290-4 0  9999
2 58447  43.0032  14.9923 0001856 259.1383 100.9260 15.27579546146955
STARLINK-30926          
1 58448U 23183M   26201.19393233 -.00000627  00000+0 -13264-4 0  9996
2 58448  43.0035  12.8801 0001008 272.3886  87.6850 15.27576271147000
STARLINK-30943          
1 58449U 23183N   26201.10607581 -.00000020  00000+0  87938-5 0  9998
2 58449  43.0020 347.9383 0001128 266.2614  93.8108 15.27576671147285
STARLINK-30946          
1 58450U 23183P   26200.82988623  .00000524  00000+0  28581-4 0  9993
2 58450  43.0025  15.3442 0001736 263.4258  96.6396 15.27577230146946
STARLINK-30944          
1 58451U 23183Q   26200.88627588  .00004354  00000+0  16763-3 0  9993
2 58451  43.0022  14.9078 0001896 270.4030  89.6604 15.27585309146925
STARLINK-30928          
1 58452U 23183R   26200.89013705  .00000148  00000+0  14906-4 0  9990
2 58452  43.0027  14.9347 0001373 265.7251  94.3444 15.27574199146944
STARLINK-30957          
1 58453U 23183S   26200.81960510  .00001767  00000+0  73712-4 0  9996
2 58453  43.0034  15.2687 0001348 258.7751 101.2950 15.27584055146945
STARLINK-30966          
1 58454U 23183T   26200.88885144  .00000388  00000+0  23632-4 0  9997
2 58454  43.0024  14.9237 0001514 261.0597  99.0084 15.27576463146959
STARLINK-30935          
1 58455U 23183U   26201.17866123  .00000382  00000+0  23413-4 0  9998
2 58455  43.0035  13.6584 0001346 270.6233  89.4465 15.27577755146994
STARLINK-30958          
1 58457U 23183W   26201.19779577 -.00000899  00000+0 -23159-4 0  9990
2 58457  43.0031  12.9491 0001166 266.6286  93.4433 15.27575276147003
STARLINK-30962          
1 58458U 23183X   26201.19009389 -.00000915  00000+0 -23718-4 0  9998
2 58458  43.0044  12.8929 0001588 267.4798  92.5872 15.27565747147007
STARLINK-30977          
1 58459U 23183Y   26200.85560945 -.00003714  00000+0 -12564-3 0  9997
2 58459  43.0032  15.5312 0001076 272.5662  87.5066 15.27548847146943
GNOMES-4                
1 58462U 23185A   26201.28615439  .00001723  00000+0  13952-3 0  9998
2 58462  97.4825 257.2321 0008011 205.2327 154.8507 15.00979272144253
KORSAT-7                
1 58463U 23185B   26201.32123215  .00001340  00000+0  10922-3 0  9999
2 58463  97.6361 265.0509 0022860 211.3651 148.6211 15.00983204144255
KOYOH                   
1 58464U 23185C   26201.31266039  .00003165  00000+0  15666-3 0  9998
2 58464  97.5297 273.4035 0007085 178.1334 181.9927 15.18511825145159
UHETSAT                 
1 58466U 23185E   26201.31781453  .00003948  00000+0  13170-3 0  9999
2 58466  97.3457 268.4927 0012824 185.1996 174.9114 15.31582071146360
SPIRIT                  
1 58468U 23185G   26201.26898859  .00442559  89959-4  73552-3 0  9994
2 58468  97.3191 289.0336 0006255 225.8856 134.1910 16.02977572147847
ION SCV-015             
1 58469U 23185H   26201.28793503  .00003730  00000+0  11802-3 0  9996
2 58469  97.5759 290.8323 0008307 351.4437   8.6662 15.33401792146158
STARLINK-30947          
1 58473U 23186A   26200.89468892  .00001020  00000+0  46608-4 0  9991
2 58473  43.0029  40.5733 0001516 265.6043  94.4635 15.27574946146077
