OBJECT_NAME,OBJECT_ID,EPOCH,MEAN_MOTION,ECCENTRICITY,INCLINATION,RA_OF_ASC_NODE,ARG_OF_PERICENTER,MEAN_ANOMALY,EPHEMERIS_TYPE,CLASSIFICATION_TYPE,NORAD_CAT_ID,ELEMENT_SET_NO,REV_AT_EPOCH,BSTAR,MEAN_MOTION_DOT,MEAN_MOTION_DDOT
COSMOS 2572,2023-182A,2026-07-19T17:18:36.545184,15.90133973,.00140445,96.6815,304.2716,168.8202,191.3388,0,U,58435,999,15362,.1571662E-3,.4687E-3,.2653178E-5
STARLINK-30869,2023-183A,2026-07-19T20:06:08.211456,15.27574922,.00015332,43.0002,15.4014,262.2302,97.8376,0,U,58437,999,14694,.14403429E-3,.3703E-4,0
STARLINK-30969,2023-183B,2026-07-19T21:34:44.644512,15.27576639,.00021229,43.0045,15.0075,277.0469,83.0141,0,U,58438,999,14695,.51202236E-4,.1147E-4,0
STARLINK-30951,2023-183C,2026-07-20T04:02:28.841568,15.27570883,.00009067,43.0010,13.5908,274.5446,85.5303,0,U,58439,999,14699,-.2232623E-5,-.323E-5,0
STARLINK-30950,2023-183D,2026-07-20T07:07:11.782560,15.27583177,.00009865,42.9997,176.2306,284.0010,76.0731,0,U,58440,999,14931,-.26608413E-4,-.994E-5,0
STARLINK-30942,2023-183E,2026-07-19T20:44:48.220800,15.27568908,.00011973,43.0043,14.7528,221.0139,139.0623,0,U,58441,999,14695,.77187521E-4,.1862E-4,0
STARLINK-30959,2023-183F,2026-07-19T20:59:35.662848,15.27575040,.00011973,43.0047,14.8277,260.6269,99.4447,0,U,58442,999,14695,-.3830023E-5,-.367E-5,0
STARLINK-30971,2023-183G,2026-07-20T04:28:22.543392,15.27574199,.00011013,43.0033,13.7152,273.0841,86.9884,0,U,58443,999,14699,.2097227E-5,-.204E-5,0
STARLINK-30963,2023-183H,2026-07-20T04:55:55.724448,15.27538204,.00020609,43.0066,13.0001,238.7499,121.3151,0,U,58444,999,14700,.26163042E-3,.6935E-4,0
STARLINK-30961,2023-183J,2026-07-20T05:01:28.739424,15.27590787,.00013612,43.0040,13.0309,270.2754,89.7942,0,U,58445,999,14700,.19881878E-4,.285E-5,0
STARLINK-30975,2023-183K,2026-07-19T18:00:31.864320,15.27572289,.00015159,43.0048,15.5986,262.3219,97.7461,0,U,58446,999,14695,.18439271E-4,.245E-5,0
STARLINK-30976,2023-183L,2026-07-19T21:27:20.995200,15.27579546,.00018567,43.0032,14.9923,259.1383,100.9260,0,U,58447,999,14695,-.23290357E-4,-.903E-5,0
STARLINK-30926,2023-183M,2026-07-20T04:39:15.753312,15.27576271,.00010084,43.0035,12.8801,272.3886,87.6850,0,U,58448,999,14700,-.13264028E-4,-.627E-5,0
STARLINK-30943,2023-183N,2026-07-20T02:32:44.949984,15.27576671,.00011287,43.0020,347.9383,266.2614,93.8108,0,U,58449,999,14728,.8793793E-5,-.2E-6,0
STARLINK-30946,2023-183P,2026-07-19T19:55:02.170272,15.27577230,.00017361,43.0025,15.3442,263.4258,96.6396,0,U,58450,999,14694,.28580881E-4,.524E-5,0
STARLINK-30944,2023-183Q,2026-07-19T21:16:14.236032,15.27585309,.0001896,43.0022,14.9078,270.4030,89.6604,0,U,58451,999,14692,.16762878E-3,.4354E-4,0
STARLINK-30928,2023-183R,2026-07-19T21:21:47.841120,15.27574199,.00013735,43.0027,14.9347,265.7251,94.3444,0,U,58452,999,14694,.14905663E-4,.148E-5,0
STARLINK-30957,2023-183S,2026-07-19T19:40:13.880640,15.27584055,.00013482,43.0034,15.2687,258.7751,101.2950,0,U,58453,999,14694,.73712492E-4,.1767E-4,0
STARLINK-30966,2023-183T,2026-07-19T21:19:56.764416,15.27576463,.00015142,43.0024,14.9237,261.0597,99.0084,0,U,58454,999,14695,.23632421E-4,.388E-5,0
STARLINK-30935,2023-183U,2026-07-20T04:17:16.330272,15.27577755,.00013468,43.0035,13.6584,270.6233,89.4465,0,U,58455,999,14699,.2341308E-4,.382E-5,0
STARLINK-30958,2023-183W,2026-07-20T04:44:49.554528,15.27575276,.00011662,43.0031,12.9491,266.6286,93.4433,0,U,58457,999,14700,-.23158663E-4,-.899E-5,0
STARLINK-30962,2023-183X,2026-07-20T04:33:44.112096,15.27565747,.00015882,43.0044,12.8929,267.4798,92.5872,0,U,58458,999,14700,-.23717988E-4,-.915E-5,0
STARLINK-30977,2023-183Y,2026-07-19T20:32:04.656480,15.27548847,.00010764,43.0032,15.5312,272.5662,87.5066,0,U,58459,999,14694,-.12563853E-3,-.3714E-4,0
GNOMES-4,2023-185A,2026-07-20T06:52:03.739296,15.00979272,.00080118,97.4825,257.2321,205.2327,154.8507,0,U,58462,999,14425,.13952462E-3,.1723E-4,0
KORSAT-7,2023-185B,2026-07-20T07:42:34.457760,15.00983204,.00228608,97.6361,265.0509,211.3651,148.6211,0,U,58463,999,14425,.10921654E-3,.134E-4,0
KOYOH,2023-185C,2026-07-20T07:30:13.857696,15.18511825,.00070859,97.5297,273.4035,178.1334,181.9927,0,U,58464,999,14515,.15665707E-3,.3165E-4,0
UHETSAT,2023-185E,2026-07-20T07:37:39.175392,15.31582071,.00128247,97.3457,268.4927,185.1996,174.9114,0,U,58466,999,14636,.13170367E-3,.3948E-4,0
SPIRIT,2023-185G,2026-07-20T06:27:20.614176,16.02977572,.00062557,97.3191,289.0336,225.8856,134.1910,0,U,58468,999,14784,.73551819E-3,.442559E-2,.89958685E-4
ION SCV-015,2023-185H,2026-07-20T06:54:37.586592,15.33401792,.00083074,97.5759,290.8323,351.4437,8.6662,0,U,58469,999,14615,.1180203E-3,.373E-4,0
STARLINK-30947,2023-186A,2026-07-19T21:28:21.122688,15.27574946,.00015162,43.0029,40.5733,265.6043,94.4635,0,U,58473,999,14607,.46607592E-4,.102E-4,0
